start=new Date('2023-04-26T00:00:00.000Z').valueOf();
sats=[{"REV_AT_EPOCH":"17173","NORAD_CAT_ID":"45412","ECCENTRICITY":"0.00013150","BSTAR":"-0.00161100000000","EPHEMERIS_TYPE":"0","MEAN_ELEMENT_THEORY":"SGP4","CLASSIFICATION_TYPE":"U","TLE_LINE2":"2 45412  53.0529 166.3014 0001315  69.8901 290.2229 15.06381966171736","CENTER_NAME":"EARTH","SITE":"AFETR","DECAY_DATE":null,"REF_FRAME":"TEME","COUNTRY_CODE":"US","PERIAPSIS":"546.358","ARG_OF_PERICENTER":"69.8901","LAUNCH_DATE":"2020-03-18","GP_ID":"230738808","MEAN_MOTION_DDOT":"0.0000000000000","INCLINATION":"53.0529","OBJECT_TYPE":"PAYLOAD","OBJECT_ID":"2020-019BE","RCS_SIZE":"LARGE","FILE":"3894092","MEAN_MOTION":"15.06381966","TLE_LINE1":"1 45412U 20019BE  23115.56959008 -.00024184  00000-0 -16110-2 0  9994","OBJECT_NAME":"STARLINK-1296","ELEMENT_SET_NO":"999","MEAN_MOTION_DOT":"-0.00024184","TIME_SYSTEM":"UTC","EPOCH":"2023-04-25T13:40:12.582912","PERIOD":"95.593","MEAN_ANOMALY":"290.2229","SEMIMAJOR_AXIS":"6925.404","APOAPSIS":"548.180","RA_OF_ASC_NODE":"166.3014"},{"FILE":"3894092","MEAN_MOTION":"15.06368226","OBJECT_NAME":"STARLINK-1298","ELEMENT_SET_NO":"999","TLE_LINE1":"1 45413U 20019BF  23115.46636909 -.00015657  00000-0 -10354-2 0  9995","TIME_SYSTEM":"UTC","MEAN_MOTION_DOT":"-0.00015657","EPOCH":"2023-04-25T11:11:34.289376","MEAN_ANOMALY":"285.4859","SEMIMAJOR_AXIS":"6925.446","PERIOD":"95.594","APOAPSIS":"548.208","RA_OF_ASC_NODE":"166.7678","REV_AT_EPOCH":"17181","NORAD_CAT_ID":"45413","ECCENTRICITY":"0.00012960","BSTAR":"-0.00103540000000","CENTER_NAME":"EARTH","TLE_LINE2":"2 45413  53.0533 166.7678 0001296  74.6274 285.4859 15.06368226171815","EPHEMERIS_TYPE":"0","MEAN_ELEMENT_THEORY":"SGP4","CLASSIFICATION_TYPE":"U","SITE":"AFETR","COUNTRY_CODE":"US","DECAY_DATE":null,"REF_FRAME":"TEME","PERIAPSIS":"546.413","LAUNCH_DATE":"2020-03-18","ARG_OF_PERICENTER":"74.6274","GP_ID":"230738558","MEAN_MOTION_DDOT":"0.0000000000000","INCLINATION":"53.0533","RCS_SIZE":"LARGE","OBJECT_ID":"2020-019BF","OBJECT_TYPE":"PAYLOAD"},{"FILE":"3894092","OBJECT_NAME":"STARLINK-1309","ELEMENT_SET_NO":"999","TLE_LINE1":"1 45414U 20019BG  23115.51799583 -.00022358  00000-0 -14881-2 0  9995","MEAN_MOTION":"15.06367935","EPOCH":"2023-04-25T12:25:54.839712","TIME_SYSTEM":"UTC","MEAN_MOTION_DOT":"-0.00022358","RA_OF_ASC_NODE":"166.5268","APOAPSIS":"548.310","MEAN_ANOMALY":"281.5040","SEMIMAJOR_AXIS":"6925.447","PERIOD":"95.594","ECCENTRICITY":"0.00014420","BSTAR":"-0.00148810000000","NORAD_CAT_ID":"45414","REV_AT_EPOCH":"17171","COUNTRY_CODE":"US","REF_FRAME":"TEME","DECAY_DATE":null,"SITE":"AFETR","CENTER_NAME":"EARTH","TLE_LINE2":"2 45414  53.0518 166.5268 0001442  78.6111 281.5040 15.06367935171713","CLASSIFICATION_TYPE":"U","MEAN_ELEMENT_THEORY":"SGP4","EPHEMERIS_TYPE":"0","LAUNCH_DATE":"2020-03-18","ARG_OF_PERICENTER":"78.6111","PERIAPSIS":"546.313","RCS_SIZE":"LARGE","OBJECT_ID":"2020-019BG","OBJECT_TYPE":"PAYLOAD","INCLINATION":"53.0518","MEAN_MOTION_DDOT":"0.0000000000000","GP_ID":"230739808"},{"REV_AT_EPOCH":"17175","NORAD_CAT_ID":"45415","BSTAR":"-0.00219770000000","ECCENTRICITY":"0.00014190","MEAN_ELEMENT_THEORY":"SGP4","CLASSIFICATION_TYPE":"U","EPHEMERIS_TYPE":"0","TLE_LINE2":"2 45415  53.0512 166.4173 0001419  66.3735 293.7403 15.06397517171753","CENTER_NAME":"EARTH","SITE":"AFETR","REF_FRAME":"TEME","DECAY_DATE":null,"COUNTRY_CODE":"US","PERIAPSIS":"546.238","ARG_OF_PERICENTER":"66.3735","LAUNCH_DATE":"2020-03-18","GP_ID":"230747719","MEAN_MOTION_DDOT":"0.0000000000000","INCLINATION":"53.0512","OBJECT_TYPE":"PAYLOAD","OBJECT_ID":"2020-019BH","RCS_SIZE":"LARGE","FILE":"3894148","MEAN_MOTION":"15.06397517","TLE_LINE1":"1 45415U 20019BH  23115.54377778 -.00032864  00000-0 -21977-2 0  9994","OBJECT_NAME":"STARLINK-1316","ELEMENT_SET_NO":"999","MEAN_MOTION_DOT":"-0.00032864","TIME_SYSTEM":"UTC","EPOCH":"2023-04-25T13:03:02.400192","PERIOD":"95.592","MEAN_ANOMALY":"293.7403","SEMIMAJOR_AXIS":"6925.356","APOAPSIS":"548.204","RA_OF_ASC_NODE":"166.4173"},{"OBJECT_TYPE":"PAYLOAD","OBJECT_ID":"2020-019BJ","RCS_SIZE":"LARGE","INCLINATION":"53.0533","MEAN_MOTION_DDOT":"0.0000000000000","GP_ID":"230738308","ARG_OF_PERICENTER":"91.9413","LAUNCH_DATE":"2020-03-18","PERIAPSIS":"546.082","DECAY_DATE":null,"REF_FRAME":"TEME","COUNTRY_CODE":"US","SITE":"AFETR","EPHEMERIS_TYPE":"0","MEAN_ELEMENT_THEORY":"SGP4","CLASSIFICATION_TYPE":"U","CENTER_NAME":"EARTH","TLE_LINE2":"2 45416  53.0533 167.1617 0001723  91.9413 268.1773 15.06380017171712","BSTAR":"-0.00073610000000","ECCENTRICITY":"0.00017230","NORAD_CAT_ID":"45416","REV_AT_EPOCH":"17171","RA_OF_ASC_NODE":"167.1617","APOAPSIS":"548.468","PERIOD":"95.593","MEAN_ANOMALY":"268.1773","SEMIMAJOR_AXIS":"6925.410","EPOCH":"2023-04-25T09:04:12.461664","MEAN_MOTION_DOT":"-0.00011223","TIME_SYSTEM":"UTC","TLE_LINE1":"1 45416U 20019BJ  23115.37792201 -.00011223  00000-0 -73610-3 0  9996","OBJECT_NAME":"STARLINK-1318","ELEMENT_SET_NO":"999","MEAN_MOTION":"15.06380017","FILE":"3894092"},{"FILE":"3894092","TLE_LINE1":"1 45417U 20019BK  23115.44887704 -.00028067  00000-0 -18749-2 0  9993","ELEMENT_SET_NO":"999","OBJECT_NAME":"STARLINK-1286","MEAN_MOTION":"15.06357543","EPOCH":"2023-04-25T10:46:22.976256","MEAN_MOTION_DOT":"-0.00028067","TIME_SYSTEM":"UTC","RA_OF_ASC_NODE":"196.8448","PERIOD":"95.595","MEAN_ANOMALY":"322.6651","SEMIMAJOR_AXIS":"6925.479","APOAPSIS":"548.493","BSTAR":"-0.00187490000000","ECCENTRICITY":"0.00016600","REV_AT_EPOCH":"17157","NORAD_CAT_ID":"45417","DECAY_DATE":null,"REF_FRAME":"TEME","COUNTRY_CODE":"US","MEAN_ELEMENT_THEORY":"SGP4","CLASSIFICATION_TYPE":"U","EPHEMERIS_TYPE":"0","TLE_LINE2":"2 45417  53.0521 196.8448 0001660  37.4453 322.6651 15.06357543171573","CENTER_NAME":"EARTH","SITE":"AFETR","PERIAPSIS":"546.194","ARG_OF_PERICENTER":"37.4453","LAUNCH_DATE":"2020-03-18","INCLINATION":"53.0521","OBJECT_TYPE":"PAYLOAD","OBJECT_ID":"2020-019BK","RCS_SIZE":"LARGE","GP_ID":"230739059","MEAN_MOTION_DDOT":"0.0000000000000"},{"MEAN_MOTION_DOT":"0.00072198","TIME_SYSTEM":"UTC","EPOCH":"2023-04-25T10:26:09.720672","PERIOD":"93.938","SEMIMAJOR_AXIS":"6845.240","MEAN_ANOMALY":"25.2923","APOAPSIS":"473.469","RA_OF_ASC_NODE":"200.2125","FILE":"3894092","MEAN_MOTION":"15.32920745","TLE_LINE1":"1 45418U 20019BL  23115.43483473  .00072198  00000-0  22263-2 0  9996","OBJECT_NAME":"STARLINK-1299","ELEMENT_SET_NO":"999","PERIAPSIS":"460.741","ARG_OF_PERICENTER":"334.7621","LAUNCH_DATE":"2020-03-18","GP_ID":"230739308","MEAN_MOTION_DDOT":"0.0000000000000","INCLINATION":"52.9878","OBJECT_TYPE":"PAYLOAD","OBJECT_ID":"2020-019BL","RCS_SIZE":"LARGE","REV_AT_EPOCH":"17120","NORAD_CAT_ID":"45418","BSTAR":"0.00222630000000","ECCENTRICITY":"0.00092970","EPHEMERIS_TYPE":"0","MEAN_ELEMENT_THEORY":"SGP4","CLASSIFICATION_TYPE":"U","TLE_LINE2":"2 45418  52.9878 200.2125 0009297 334.7621  25.2923 15.32920745171200","CENTER_NAME":"EARTH","SITE":"AFETR","REF_FRAME":"TEME","DECAY_DATE":null,"COUNTRY_CODE":"US"},{"ECCENTRICITY":"0.00011340","BSTAR":"-0.00434810000000","NORAD_CAT_ID":"45419","REV_AT_EPOCH":"17132","REF_FRAME":"TEME","DECAY_DATE":null,"COUNTRY_CODE":"US","SITE":"AFETR","EPHEMERIS_TYPE":"0","MEAN_ELEMENT_THEORY":"SGP4","CLASSIFICATION_TYPE":"U","CENTER_NAME":"EARTH","TLE_LINE2":"2 45419  53.0537 196.8610 0001134   1.0768 359.0223 15.06367425171327","ARG_OF_PERICENTER":"1.0768","LAUNCH_DATE":"2020-03-18","PERIAPSIS":"546.528","OBJECT_TYPE":"PAYLOAD","RCS_SIZE":"LARGE","OBJECT_ID":"2020-019BM","INCLINATION":"53.0537","MEAN_MOTION_DDOT":"0.0000000000000","GP_ID":"230740059","FILE":"3894092","TLE_LINE1":"1 45419U 20019BM  23115.44518456 -.00064406  00000-0 -43481-2 0  9998","OBJECT_NAME":"STARLINK-1308","ELEMENT_SET_NO":"999","MEAN_MOTION":"15.06367425","EPOCH":"2023-04-25T10:41:03.945984","MEAN_MOTION_DOT":"-0.00064406","TIME_SYSTEM":"UTC","RA_OF_ASC_NODE":"196.8610","APOAPSIS":"548.099","PERIOD":"95.594","MEAN_ANOMALY":"359.0223","SEMIMAJOR_AXIS":"6925.448"},{"REF_FRAME":"TEME","DECAY_DATE":null,"COUNTRY_CODE":"US","SITE":"AFETR","CLASSIFICATION_TYPE":"U","EPHEMERIS_TYPE":"0","MEAN_ELEMENT_THEORY":"SGP4","TLE_LINE2":"2 45531  53.0527 137.2957 0002172  47.3098 312.8073 15.06393631166935","CENTER_NAME":"EARTH","BSTAR":"-0.00056475000000","ECCENTRICITY":"0.00021720","NORAD_CAT_ID":"45531","REV_AT_EPOCH":"16693","OBJECT_TYPE":"PAYLOAD","RCS_SIZE":"LARGE","OBJECT_ID":"2020-025A","INCLINATION":"53.0527","MEAN_MOTION_DDOT":"0.0000000000000","GP_ID":"230738820","ARG_OF_PERICENTER":"47.3098","LAUNCH_DATE":"2020-04-22","PERIAPSIS":"545.729","TLE_LINE1":"1 45531U 20025A   23115.34750289 -.00008682  00000-0 -56475-3 0  9993","OBJECT_NAME":"STARLINK-1329","ELEMENT_SET_NO":"999","MEAN_MOTION":"15.06393631","FILE":"3894092","RA_OF_ASC_NODE":"137.2957","APOAPSIS":"548.737","PERIOD":"95.593","SEMIMAJOR_AXIS":"6925.368","MEAN_ANOMALY":"312.8073","EPOCH":"2023-04-25T08:20:24.249696","MEAN_MOTION_DOT":"-0.00008682","TIME_SYSTEM":"UTC"},{"TLE_LINE1":"1 45532U 20025B   23115.42491229 -.00004428  00000-0 -27865-3 0  9994","ELEMENT_SET_NO":"999","OBJECT_NAME":"STARLINK-1338","MEAN_MOTION":"15.06386031","FILE":"3894092","RA_OF_ASC_NODE":"136.9456","PERIOD":"95.593","MEAN_ANOMALY":"272.5747","SEMIMAJOR_AXIS":"6925.391","APOAPSIS":"548.299","EPOCH":"2023-04-25T10:11:52.421856","MEAN_MOTION_DOT":"-0.00004428","TIME_SYSTEM":"UTC","DECAY_DATE":null,"REF_FRAME":"TEME","COUNTRY_CODE":"US","EPHEMERIS_TYPE":"0","MEAN_ELEMENT_THEORY":"SGP4","CLASSIFICATION_TYPE":"U","CENTER_NAME":"EARTH","TLE_LINE2":"2 45532  53.0533 136.9456 0001505  87.5414 272.5747 15.06386031166947","SITE":"AFETR","ECCENTRICITY":"0.00015050","BSTAR":"-0.00027865000000","REV_AT_EPOCH":"16694","NORAD_CAT_ID":"45532","INCLINATION":"53.0533","OBJECT_TYPE":"PAYLOAD","OBJECT_ID":"2020-025B","RCS_SIZE":"LARGE","GP_ID":"230738570","MEAN_MOTION_DDOT":"0.0000000000000","PERIAPSIS":"546.214","ARG_OF_PERICENTER":"87.5414","LAUNCH_DATE":"2020-04-22"}];
